NORAD_CAT_ID,OBJECT_NAME,OBJECT_TYPE,EPOCH,MEAN_MOTION,ECCENTRICITY,INCLINATION,RA_OF_ASC_NODE,ARG_OF_PERICENTER,MEAN_ANOMALY,BSTAR,MEAN_MOTION_DOT,MEAN_MOTION_DDOT,TLE_LINE0,TLE_LINE1,TLE_LINE2,SEMIMAJOR_AXIS,PERIOD,APOGEE,PERIGEE,DECAYED
53399.0,STARLINK-4528,PAYLOAD,2022-11-05 03:37:02,15.08835375,0.0001771,53.2188,203.3323,51.987,308.1282,-0.00011344,-2.093e-05,0.0,0 STARLINK-4528,1 53399U 22097M   22309.15072652 -.00002093  00000-0 -11344-3 0  9995,2 53399  53.2188 203.3323 0001771  51.9870 308.1282 15.08835375 14251,6917.895,95.438,540.985,538.534,0.0
53399.0,STARLINK-4528,PAYLOAD,2022-11-05 16:20:08,15.08824033,0.0002035,53.2178,200.954,57.4409,302.6779,-0.00033314,-5.584e-05,0.0,0 STARLINK-4528,1 53399U 22097M   22309.68065609 -.00005584  00000-0 -33314-3 0  9996,2 53399  53.2178 200.9540 0002035  57.4409 302.6779 15.08824033 13840,6917.929,95.439,541.202,538.386,0.0
53399.0,STARLINK-4528,PAYLOAD,2022-11-06 09:49:24,15.0882794,0.0001866,53.2194,197.6819,56.3179,303.7991,-4.8609e-05,-1.061e-05,0.0,0 STARLINK-4528,1 53399U 22097M   22310.40930801 -.00001061  00000-0 -48609-4 0  9993,2 53399  53.2194 197.6819 0001866  56.3179 303.7991 15.08827940 14447,6917.917,95.438,541.073,538.491,0.0
53399.0,STARLINK-4528,PAYLOAD,2022-11-06 20:57:05,15.08833741,0.0001736,53.2195,195.6,54.269,305.8464,0.00010757,1.424e-05,0.0,0 STARLINK-4528,1 53399U 22097M   22310.87298291  .00001424  00000-0  10757-3 0  9997,2 53399  53.2195 195.6000 0001736  54.2690 305.8464 15.08833741 14027,6917.9,95.438,540.965,538.564,0.0
53399.0,STARLINK-4528,PAYLOAD,2022-11-07 22:23:16,15.08846146,0.0001668,53.2182,190.8434,58.6928,301.4228,0.00047837,7.335e-05,0.0,0 STARLINK-4528,1 53399U 22097M   22311.93282818  .00007335  00000-0  47837-3 0  9999,2 53399  53.2182 190.8434 0001668  58.6928 301.4228 15.08846146 14187,6917.861999999999,95.437,540.881,538.573,0.0
53399.0,STARLINK-4528,PAYLOAD,2022-11-08 17:27:52,15.08873401,0.0001896,53.2172,187.2785,46.369,313.7459,0.00065146,0.00010105,0.0,0 STARLINK-4528,1 53399U 22097M   22312.72769452  .00010105  00000-0  65146-3 0  9993,2 53399  53.2172 187.2785 0001896  46.3690 313.7459 15.08873401 14308,6917.778,95.435,540.955,538.332,0.0
53399.0,STARLINK-4528,PAYLOAD,2022-11-08 19:03:15,15.08874993,0.00019,53.2169,186.981,44.2938,315.8206,0.00049405,7.591e-05,0.0,0 STARLINK-4528,1 53399U 22097M   22312.79393232  .00007591  00000-0  49405-3 0  9994,2 53399  53.2169 186.9810 0001900  44.2938 315.8206 15.08874993 14802,6917.773,95.435,540.953,538.3240000000002,0.0
53399.0,STARLINK-4528,PAYLOAD,2022-11-09 12:32:30,15.08853975,0.0001734,53.2165,183.7082,55.1097,305.0058,0.00013622,1.881e-05,0.0,0 STARLINK-4528,1 53399U 22097M   22313.52256996  .00001881  00000-0  13622-3 0  9999,2 53399  53.2165 183.7082 0001734  55.1097 305.0058 15.08853975 14911,6917.8380000000025,95.437,540.9019999999998,538.503,0.0
53399.0,STARLINK-4528,PAYLOAD,2022-11-09 20:29:25,15.08839722,0.0001652,53.2171,182.2219,53.608,306.5064,0.00012246,1.661e-05,0.0,0 STARLINK-4528,1 53399U 22097M   22313.85377148  .00001661  00000-0  12246-3 0  9995,2 53399  53.2171 182.2219 0001652  53.6080 306.5064 15.08839722 14476,6917.880999999999,95.438,540.889,538.6030000000002,0.0
53399.0,STARLINK-4528,PAYLOAD,2022-11-10 01:15:35,15.08837405,0.0002065,53.2171,181.3323,45.284,314.832,-0.00015944,-2.825e-05,0.0,0 STARLINK-4528,1 53399U 22097M   22314.05249401 -.00002825  00000-0 -15944-3 0  9991,2 53399  53.2171 181.3323 0002065  45.2840 314.8320 15.08837405 14992,6917.888000000001,95.438,541.182,538.325,0.0
53399.0,STARLINK-4528,PAYLOAD,2022-11-10 18:44:50,15.08825155,0.0001846,53.2168,178.0604,49.6674,310.4479,-3.0727e-05,-7.77e-06,0.0,0 STARLINK-4528,1 53399U 22097M   22314.78114532 -.00000777  00000-0 -30727-4 0  9998,2 53399  53.2168 178.0604 0001846  49.6674 310.4479 15.08825155 14617,6917.926,95.438,541.068,538.514,0.0
53399.0,STARLINK-4528,PAYLOAD,2022-11-10 20:20:14,15.08829332,0.0001944,53.2166,177.7634,49.7292,310.387,-1.8075e-05,-5.76e-06,0.0,0 STARLINK-4528,1 53399U 22097M   22314.84738509 -.00000576  00000-0 -18075-4 0  9990,2 53399  53.2166 177.7634 0001944  49.7292 310.3870 15.08829332 15111,6917.913000000001,95.438,541.123,538.433,0.0
53399.0,STARLINK-4528,PAYLOAD,2022-11-11 07:27:56,15.08836096,0.0001791,53.2171,175.6795,57.1815,302.9349,0.00029171,4.357e-05,0.0,0 STARLINK-4528,1 53399U 22097M   22315.31106555  .00004357  00000-0  29171-3 0  9990,2 53399  53.2171 175.6795 0001791  57.1815 302.9349 15.08836096 14691,6917.892,95.438,540.996,538.518,0.0
53399.0,STARLINK-4528,PAYLOAD,2022-11-11 21:46:24,15.088458800000002,0.0001803,53.2188,172.9998,52.7539,307.3618,0.00030369,4.549e-05,0.0,0 STARLINK-4528,1 53399U 22097M   22315.90722591  .00004549  00000-0  30369-3 0  9993,2 53399  53.2188 172.9998 0001803  52.7539 307.3618 15.08845880 15276,6917.861999999999,95.437,540.975,538.48,0.0
53399.0,STARLINK-4528,PAYLOAD,2022-11-12 13:40:15,15.08844527,0.0001961,53.2165,170.03,60.0963,300.0224,0.00028117,4.19e-05,0.0,0 STARLINK-4528,1 53399U 22097M   22316.56962313  .00004190  00000-0  28117-3 0  9994,2 53399  53.2165 170.0300 0001961  60.0963 300.0224 15.08844527 14881,6917.8669999999975,95.437,541.0880000000002,538.375,0.0
53399.0,STARLINK-4528,PAYLOAD,2022-11-12 21:37:11,15.08849499,0.0001706,53.2166,168.5433,60.5498,299.5664,0.00033118,4.988e-05,0.0,0 STARLINK-4528,1 53399U 22097M   22316.90082327  .00004988  00000-0  33118-3 0  9992,2 53399  53.2166 168.5433 0001706  60.5498 299.5664 15.08849499 15420,6917.851,95.437,540.8969999999998,538.536,0.0
53399.0,STARLINK-4528,PAYLOAD,2022-11-13 10:20:16,15.08838993,0.0001714,53.216,166.1634,66.8473,293.2699,-9.2128e-06,-4.35e-06,0.0,0 STARLINK-4528,1 53399U 22097M   22317.43074489 -.00000435  00000-0 -92128-5 0  9994,2 53399  53.2160 166.1634 0001714  66.8473 293.2699 15.08838993 15013,6917.8830000000025,95.438,540.934,538.563,0.0
53399.0,STARLINK-4528,PAYLOAD,2022-11-13 18:17:12,15.08840938,0.0001746,53.2169,164.6778,60.0128,300.1037,2.6415e-05,1.32e-06,0.0,0 STARLINK-4528,1 53399U 22097M   22317.76194609  .00000132  00000-0  26415-4 0  9994,2 53399  53.2169 164.6778 0001746  60.0128 300.1037 15.08840938 15557,6917.878000000002,95.437,540.95,538.535,0.0
53399.0,STARLINK-4528,PAYLOAD,2022-11-14 07:00:18,15.08825169,0.000169,53.2166,162.2983,60.0944,300.0216,-7.7498e-05,-1.521e-05,0.0,0 STARLINK-4528,1 53399U 22097M   22318.29187778 -.00001521  00000-0 -77498-4 0  9994,2 53399  53.2166 162.2983 0001690  60.0944 300.0216 15.08825169 15142,6917.926,95.438,540.96,538.622,0.0
53399.0,STARLINK-4528,PAYLOAD,2022-11-14 18:08:00,15.08827117,0.0001734,53.2167,160.2179,58.1545,301.9615,-5.9933e-05,-1.241e-05,0.0,0 STARLINK-4528,1 53399U 22097M   22318.75556122 -.00001241  00000-0 -59933-4 0  9991,2 53399  53.2167 160.2179 0001734  58.1545 301.9615 15.08827117 15702,6917.92,95.438,540.984,538.585,0.0
53399.0,STARLINK-4528,PAYLOAD,2022-11-15 13:12:38,15.08831325,0.0001865,53.2171,156.6496,59.5102,300.6075,0.00016675,2.366e-05,0.0,0 STARLINK-4528,1 53399U 22097M   22319.55044788  .00002366  00000-0  16675-3 0  9992,2 53399  53.2171 156.6496 0001865  59.5102 300.6075 15.08831325 15822,6917.906999999997,95.438,541.062,538.482,0.0
53399.0,STARLINK-4528,PAYLOAD,2022-11-15 14:48:01,15.08831574,0.0001828,53.2172,156.3522,69.0135,291.1053,0.00017931,2.566e-05,0.0,0 STARLINK-4528,1 53399U 22097M   22319.61668840  .00002566  00000-0  17931-3 0  9998,2 53399  53.2172 156.3522 0001828  69.0135 291.1053 15.08831574 15344,6917.906,95.438,541.036,538.507,0.0
53399.0,STARLINK-4528,PAYLOAD,2022-11-15 19:34:11,15.08833107,0.0001883,53.2169,155.4603,59.6081,300.5097,0.00027941,4.161e-05,0.0,0 STARLINK-4528,1 53399U 22097M   22319.81541033  .00004161  00000-0  27941-3 0  9999,2 53399  53.2169 155.4603 0001883  59.6081 300.5097 15.08833107 15860,6917.901,95.438,541.069,538.464,0.0
53399.0,STARLINK-4528,PAYLOAD,2022-11-16 13:03:26,15.0883992,0.0001968,53.217,152.1892,60.1882,299.9305,0.00034734,5.244e-05,0.0,0 STARLINK-4528,1 53399U 22097M   22320.54405252  .00005244  00000-0  34734-3 0  9994,2 53399  53.2170 152.1892 0001968  60.1882 299.9305 15.08839920 15970,6917.880999999999,95.438,541.107,538.384,0.0
53399.0,STARLINK-4528,PAYLOAD,2022-11-16 19:24:58,15.08844194,0.0001974,53.217,150.9997,60.6113,299.5077,0.00037472,5.681e-05,0.0,0 STARLINK-4528,1 53399U 22097M   22320.80901152  .00005681  00000-0  37472-3 0  9990,2 53399  53.2170 150.9997 0001974  60.6113 299.5077 15.08844194 15523,6917.868,95.437,541.0980000000002,538.367,0.0
53399.0,STARLINK-4528,PAYLOAD,2022-11-17 12:54:12,15.08851392,0.000201,53.2171,147.7288,61.222,298.8974,0.00033933,5.118e-05,0.0,0 STARLINK-4528,1 53399U 22097M   22321.53764719  .00005118  00000-0  33933-3 0  9990,2 53399  53.2171 147.7288 0002010  61.2220 298.8974 15.08851392 16122,6917.846,95.437,541.101,538.32,0.0
53399.0,STARLINK-4528,PAYLOAD,2022-11-17 19:15:45,15.08853273,0.0002012,53.217,146.5391,62.2393,297.8803,0.00030847,4.626e-05,0.0,0 STARLINK-4528,1 53399U 22097M   22321.80260446  .00004626  00000-0  30847-3 0  9992,2 53399  53.2170 146.5391 0002012  62.2393 297.8803 15.08853273 16161,6917.84,95.437,541.097,538.313,0.0
53399.0,STARLINK-4528,PAYLOAD,2022-11-18 12:44:59,15.08854644,0.0002032,53.217,143.2681,62.9691,297.1509,0.00019867,2.876e-05,0.0,0 STARLINK-4528,1 53399U 22097M   22322.53123865  .00002876  00000-0  19867-3 0  9990,2 53399  53.2170 143.2681 0002032  62.9691 297.1509 15.08854644 15783,6917.8359999999975,95.437,541.106,538.295,0.0
53399.0,STARLINK-4528,PAYLOAD,2022-11-18 19:06:31,15.08844008,0.000201,53.2169,142.0783,63.6633,296.4566,2.2395e-05,6.8e-07,0.0,0 STARLINK-4528,1 53399U 22097M   22322.79620162  .00000068  00000-0  22395-4 0  9992,2 53399  53.2169 142.0783 0002010  63.6633 296.4566 15.08844008 15824,6917.868,95.437,541.124,538.3430000000002,0.0
